{
  "type": "FeatureCollection",
  "features": [
    {
      "type": "Feature",
      "properties": {
        "norad_id": 66681,
        "name": "TRANSPORTER-15 R",
        "group": "last-30-days",
        "lat": 37.10182074651426,
        "lon": -108.57062138983264,
        "alt_km": 514.0659784980453,
        "timestamp": "2025-12-20T03:42:46.119472+00:00",
        "meta_object_name": "TRANSPORTER-15 R",
        "meta_object_id": "2025-276R",
        "meta_epoch": "2025-12-19T14:25:30.047808",
        "meta_mean_motion": 15.17339099,
        "meta_eccentricity": 0.0004944,
        "meta_inclination": 97.4348,
        "meta_ra_of_asc_node": 65.2178,
        "meta_arg_of_pericenter": 289.7196,
        "meta_mean_anomaly": 70.3504,
        "meta_ephemeris_type": 0,
        "meta_classification_type": "U",
        "meta_norad_cat_id": 66681,
        "meta_element_set_no": 999,
        "meta_rev_at_epoch": 316,
        "meta_bstar": 0.0005556,
        "meta_mean_motion_dot": 0.0001103,
        "meta_mean_motion_ddot": 0,
        "tle_line1": "1 66681U 25276R   25353.60104222  .00011030  00000+0  55560-3 0  9992",
        "tle_line2": "2 66681  97.4348  65.2178 0004944 289.7196  70.3504 15.17339099  3162"
      },
      "geometry": {
        "type": "Point",
        "coordinates": [
          -108.57062138983264,
          37.10182074651426
        ]
      }
    },
    {
      "type": "Feature",
      "properties": {
        "norad_id": 66682,
        "name": "TRANSPORTER-15 S",
        "group": "last-30-days",
        "lat": 46.61743660425439,
        "lon": -106.25616765843631,
        "alt_km": 512.2126631688279,
        "timestamp": "2025-12-20T03:42:46.119482+00:00",
        "meta_object_name": "TRANSPORTER-15 S",
        "meta_object_id": "2025-276S",
        "meta_epoch": "2025-12-19T11:17:56.656032",
        "meta_mean_motion": 15.17073831,
        "meta_eccentricity": 0.0004746,
        "meta_inclination": 97.4471,
        "meta_ra_of_asc_node": 65.1162,
        "meta_arg_of_pericenter": 254.2477,
        "meta_mean_anomaly": 105.8233,
        "meta_ephemeris_type": 0,
        "meta_classification_type": "U",
        "meta_norad_cat_id": 66682,
        "meta_element_set_no": 999,
        "meta_rev_at_epoch": 314,
        "meta_bstar": 0.00037415,
        "meta_mean_motion_dot": 7.346e-05,
        "meta_mean_motion_ddot": 0,
        "tle_line1": "1 66682U 25276S   25353.47079463  .00007346  00000+0  37415-3 0  9990",
        "tle_line2": "2 66682  97.4471  65.1162 0004746 254.2477 105.8233 15.17073831  3141"
      },
      "geometry": {
        "type": "Point",
        "coordinates": [
          -106.25616765843631,
          46.61743660425439
        ]
      }
    },
    {
      "type": "Feature",
      "properties": {
        "norad_id": 66683,
        "name": "TRANSPORTER-15 T",
        "group": "last-30-days",
        "lat": 49.96609450876235,
        "lon": -105.25856328969034,
        "alt_km": 512.3558017128616,
        "timestamp": "2025-12-20T03:42:46.119492+00:00",
        "meta_object_name": "TRANSPORTER-15 T",
        "meta_object_id": "2025-276T",
        "meta_epoch": "2025-12-19T11:18:46.600416",
        "meta_mean_motion": 15.16970051,
        "meta_eccentricity": 0.0004607,
        "meta_inclination": 97.4463,
        "meta_ra_of_asc_node": 65.1138,
        "meta_arg_of_pericenter": 258.1451,
        "meta_mean_anomaly": 101.9266,
        "meta_ephemeris_type": 0,
        "meta_classification_type": "U",
        "meta_norad_cat_id": 66683,
        "meta_element_set_no": 999,
        "meta_rev_at_epoch": 314,
        "meta_bstar": 0.00024249,
        "meta_mean_motion_dot": 4.722e-05,
        "meta_mean_motion_ddot": 0,
        "tle_line1": "1 66683U 25276T   25353.47137269  .00004722  00000+0  24249-3 0  9996",
        "tle_line2": "2 66683  97.4463  65.1138 0004607 258.1451 101.9266 15.16970051  3149"
      },
      "geometry": {
        "type": "Point",
        "coordinates": [
          -105.25856328969034,
          49.96609450876235
        ]
      }
    },
    {
      "type": "Feature",
      "properties": {
        "norad_id": 66684,
        "name": "TRANSPORTER-15 U",
        "group": "last-30-days",
        "lat": 35.80430544787058,
        "lon": -108.78627615827943,
        "alt_km": 512.8236235475069,
        "timestamp": "2025-12-20T03:42:46.119505+00:00",
        "meta_object_name": "TRANSPORTER-15 U",
        "meta_object_id": "2025-276U",
        "meta_epoch": "2025-12-18T03:35:45.403584",
        "meta_mean_motion": 15.17214477,
        "meta_eccentricity": 0.00044213,
        "meta_inclination": 97.449,
        "meta_ra_of_asc_node": 63.8272,
        "meta_arg_of_pericenter": 261.298,
        "meta_mean_anomaly": 98.7753,
        "meta_ephemeris_type": 0,
        "meta_classification_type": "U",
        "meta_norad_cat_id": 66684,
        "meta_element_set_no": 999,
        "meta_rev_at_epoch": 294,
        "meta_bstar": 0.00053836659,
        "meta_mean_motion_dot": 0.00010646,
        "meta_mean_motion_ddot": 0,
        "tle_line1": "1 66684U 25276U   25352.14983106  .00010646  00000+0  53837-3 0  9996",
        "tle_line2": "2 66684  97.4490  63.8272 0004421 261.2980  98.7753 15.17214477  2945"
      },
      "geometry": {
        "type": "Point",
        "coordinates": [
          -108.78627615827943,
          35.80430544787058
        ]
      }
    },
    {
      "type": "Feature",
      "properties": {
        "norad_id": 66685,
        "name": "TRANSPORTER-15 V",
        "group": "last-30-days",
        "lat": 30.154056474379644,
        "lon": -109.85824346682294,
        "alt_km": 513.9132410773882,
        "timestamp": "2025-12-20T03:42:46.119517+00:00",
        "meta_object_name": "TRANSPORTER-15 V",
        "meta_object_id": "2025-276V",
        "meta_epoch": "2025-12-19T14:23:40.254144",
        "meta_mean_motion": 15.17380939,
        "meta_eccentricity": 0.0003974,
        "meta_inclination": 97.4431,
        "meta_ra_of_asc_node": 65.2408,
        "meta_arg_of_pericenter": 278.7845,
        "meta_mean_anomaly": 81.2938,
        "meta_ephemeris_type": 0,
        "meta_classification_type": "U",
        "meta_norad_cat_id": 66685,
        "meta_element_set_no": 999,
        "meta_rev_at_epoch": 316,
        "meta_bstar": 0.00049331,
        "meta_mean_motion_dot": 9.795e-05,
        "meta_mean_motion_ddot": 0,
        "tle_line1": "1 66685U 25276V   25353.59977146  .00009795  00000+0  49331-3 0  9991",
        "tle_line2": "2 66685  97.4431  65.2408 0003974 278.7845  81.2938 15.17380939  3167"
      },
      "geometry": {
        "type": "Point",
        "coordinates": [
          -109.85824346682294,
          30.154056474379644
        ]
      }
    },
    {
      "type": "Feature",
      "properties": {
        "norad_id": 66686,
        "name": "TRANSPORTER-15 W",
        "group": "last-30-days",
        "lat": 45.52086798520643,
        "lon": -106.55878464021714,
        "alt_km": 513.0382873002518,
        "timestamp": "2025-12-20T03:42:46.119527+00:00",
        "meta_object_name": "TRANSPORTER-15 W",
        "meta_object_id": "2025-276W",
        "meta_epoch": "2025-12-19T11:17:34.507392",
        "meta_mean_motion": 15.16958969,
        "meta_eccentricity": 0.0004583,
        "meta_inclination": 97.4454,
        "meta_ra_of_asc_node": 65.1162,
        "meta_arg_of_pericenter": 263.0125,
        "meta_mean_anomaly": 97.0587,
        "meta_ephemeris_type": 0,
        "meta_classification_type": "U",
        "meta_norad_cat_id": 66686,
        "meta_element_set_no": 999,
        "meta_rev_at_epoch": 314,
        "meta_bstar": 0.00015018,
        "meta_mean_motion_dot": 2.897e-05,
        "meta_mean_motion_ddot": 0,
        "tle_line1": "1 66686U 25276W   25353.47053828  .00002897  00000+0  15018-3 0  9992",
        "tle_line2": "2 66686  97.4454  65.1162 0004583 263.0125  97.0587 15.16958969  3140"
      },
      "geometry": {
        "type": "Point",
        "coordinates": [
          -106.55878464021714,
          45.52086798520643
        ]
      }
    },
    {
      "type": "Feature",
      "properties": {
        "norad_id": 66687,
        "name": "TRANSPORTER-15 X",
        "group": "last-30-days",
        "lat": 70.64223651021865,
        "lon": -92.4038375520258,
        "alt_km": 505.1053669104522,
        "timestamp": "2025-12-20T03:42:46.119538+00:00",
        "meta_object_name": "TRANSPORTER-15 X",
        "meta_object_id": "2025-276X",
        "meta_epoch": "2025-12-19T03:29:15.187488",
        "meta_mean_motion": 15.16623915,
        "meta_eccentricity": 0.00084967,
        "meta_inclination": 97.4403,
        "meta_ra_of_asc_node": 64.7687,
        "meta_arg_of_pericenter": 65.7808,
        "meta_mean_anomaly": 294.4312,
        "meta_ephemeris_type": 0,
        "meta_classification_type": "U",
        "meta_norad_cat_id": 66687,
        "meta_element_set_no": 999,
        "meta_rev_at_epoch": 309,
        "meta_bstar": 0.0002869943,
        "meta_mean_motion_dot": 5.549e-05,
        "meta_mean_motion_ddot": 0,
        "tle_line1": "1 66687U 25276X   25353.14531467  .00005549  00000+0  28699-3 0  9993",
        "tle_line2": "2 66687  97.4403  64.7687 0008496  65.7808 294.4312 15.16623915  3097"
      },
      "geometry": {
        "type": "Point",
        "coordinates": [
          -92.4038375520258,
          70.64223651021865
        ]
      }
    }
  ]
}